NORAD_CAT_ID,OBJECT_NAME,OBJECT_TYPE,EPOCH,MEAN_MOTION,ECCENTRICITY,INCLINATION,RA_OF_ASC_NODE,ARG_OF_PERICENTER,MEAN_ANOMALY,BSTAR,MEAN_MOTION_DOT,MEAN_MOTION_DDOT,TLE_LINE0,TLE_LINE1,TLE_LINE2,SEMIMAJOR_AXIS,PERIOD,APOGEE,PERIGEE,DECAYED
53024.0,STARLINK-4289,PAYLOAD,2024-01-21 03:28:46,15.08841129,0.0001535,53.2193,339.1472,92.8715,267.2453,3.8604e-05,3.26e-06,0.0,0 STARLINK-4289,1 53024U 22076AQ  24021.14498828  .00000326  00000-0  38604-4 0  9990,2 53024  53.2193 339.1472 0001535  92.8715 267.2453 15.08841129 85926,6917.877,95.437,540.804,538.68,0.0
53024.0,STARLINK-4289,PAYLOAD,2024-01-21 06:39:32,15.0884741,0.0001787,53.2188,338.5454,69.6435,290.4749,5.6945e-05,6.18e-06,0.0,0 STARLINK-4289,1 53024U 22076AQ  24021.27746427  .00000618  00000-0  56945-4 0  9997,2 53024  53.2188 338.5454 0001787  69.6435 290.4749 15.08847410 85478,6917.858,95.437,540.959,538.487,0.0
53024.0,STARLINK-4289,PAYLOAD,2024-01-22 03:19:32,15.0886604,0.0001344,53.2202,334.6812,114.5181,245.5951,-0.0002054,-3.558e-05,0.0,0 STARLINK-4289,1 53024U 22076AQ  24022.13857369 -.00003558  00000-0 -20540-3 0  9990,2 53024  53.2202 334.6812 0001344 114.5181 245.5951 15.08866040 86070,6917.801,95.436,540.596,538.736,0.0
53024.0,STARLINK-4289,PAYLOAD,2024-01-22 06:30:18,15.08869695,0.0001431,53.2202,334.0853,119.5959,240.5176,-0.00022677,-3.898e-05,0.0,0 STARLINK-4289,1 53024U 22076AQ  24022.27105039 -.00003898  00000-0 -22677-3 0  9995,2 53024  53.2202 334.0853 0001431 119.5959 240.5176 15.08869695 85627,6917.79,95.436,540.645,538.665,0.0
53024.0,STARLINK-4289,PAYLOAD,2024-01-23 03:10:21,15.08833437,0.0001406,53.2194,330.2162,95.9283,264.187,0.00014625,2.04e-05,0.0,0 STARLINK-4289,1 53024U 22076AQ  24023.13218780  .00002040  00000-0  14625-3 0  9999,2 53024  53.2194 330.2162 0001406  95.9283 264.1870 15.08833437 86222,6917.9,95.438,540.738,538.793,0.0
53024.0,STARLINK-4289,PAYLOAD,2024-01-24 03:01:07,15.08846859,0.0001793,53.2195,325.7666,119.8469,240.2702,2.4255e-05,9.8e-07,0.0,0 STARLINK-4289,1 53024U 22076AQ  24024.12578416  .00000098  00000-0  24255-4 0  9996,2 53024  53.2195 325.7666 0001793 119.8469 240.2702 15.08846859 86379,6917.859,95.437,540.965,538.484,0.0
53024.0,STARLINK-4289,PAYLOAD,2024-01-25 01:16:32,15.08837116,0.0001612,53.22,321.607,116.1315,243.9843,5.6775e-05,6.16e-06,0.0,0 STARLINK-4289,1 53024U 22076AQ  24025.05315244  .00000616  00000-0  56775-4 0  9995,2 53024  53.2200 321.6070 0001612 116.1315 243.9843 15.08837116 86518,6917.889,95.438,540.869,538.639,0.0
53024.0,STARLINK-4289,PAYLOAD,2024-01-26 02:42:43,15.087871,0.0001703,53.219,316.8437,100.5877,259.5307,0.00078575,0.00012221,0.0,0 STARLINK-4289,1 53024U 22076AQ  24026.11300663  .00012221  00000-0  78575-3 0  9998,2 53024  53.2190 316.8437 0001703 100.5877 259.5307 15.08787100 86672,6918.042,95.441,541.085,538.729,0.0
53024.0,STARLINK-4289,PAYLOAD,2024-01-26 18:36:34,15.08837173,0.0001324,53.2184,313.871,85.6074,274.5069,0.00012705,1.735e-05,0.0,0 STARLINK-4289,1 53024U 22076AQ  24026.77539638  .00001735  00000-0  12705-3 0  9997,2 53024  53.2184 313.8710 0001324  85.6074 274.5069 15.08837173 86776,6917.889,95.438,540.67,538.838,0.0
53024.0,STARLINK-4289,PAYLOAD,2024-01-27 02:33:30,15.08818722,0.000167,53.2191,312.3867,81.6855,278.4326,0.00062845,9.722e-05,0.0,0 STARLINK-4289,1 53024U 22076AQ  24027.10659805  .00009722  00000-0  62845-3 0  9998,2 53024  53.2191 312.3867 0001670  81.6855 278.4326 15.08818722 86350,6917.945,95.439,540.966,538.655,0.0
53024.0,STARLINK-4289,PAYLOAD,2024-01-28 03:59:40,15.08836667,0.0001589,53.2196,307.6223,73.9642,286.1525,0.00019433,2.806e-05,0.0,0 STARLINK-4289,1 53024U 22076AQ  24028.16643752  .00002806  00000-0  19433-3 0  9990,2 53024  53.2196 307.6223 0001589  73.9642 286.1525 15.08836667 86989,6917.891,95.438,540.855,538.656,0.0
53024.0,STARLINK-4289,PAYLOAD,2024-01-29 00:39:40,15.08847245,0.0001499,53.2183,303.7585,87.5804,272.536,-2.8532e-05,-7.42e-06,0.0,0 STARLINK-4289,1 53024U 22076AQ  24029.02755537 -.00000742  00000-0 -28532-4 0  9991,2 53024  53.2183 303.7585 0001499  87.5804 272.5360 15.08847245 86647,6917.858,95.437,540.76,538.686,0.0
53024.0,STARLINK-4289,PAYLOAD,2024-01-30 00:30:27,15.08843588,0.000195,53.2196,299.2949,65.9373,294.1823,8.8332e-05,1.118e-05,0.0,0 STARLINK-4289,1 53024U 22076AQ  24030.02115581  .00001118  00000-0  88332-4 0  9992,2 53024  53.2196 299.2949 0001950  65.9373 294.1823 15.08843588 87266,6917.869,95.437,541.083,538.385,0.0
53024.0,STARLINK-4289,PAYLOAD,2024-01-30 22:45:51,15.08846475,0.000153,53.218,295.1419,96.2967,263.8199,0.0001041,1.369e-05,0.0,0 STARLINK-4289,1 53024U 22076AQ  24030.94850979  .00001369  00000-0  10410-3 0  9999,2 53024  53.2180 295.1419 0001530  96.2967 263.8199 15.08846475 86936,6917.861,95.437,540.784,538.667,0.0
53024.0,STARLINK-4289,PAYLOAD,2024-01-31 00:21:13,15.08857305,0.0001455,53.2179,294.8416,93.3487,266.7672,0.00019402,2.803e-05,0.0,0 STARLINK-4289,1 53024U 22076AQ  24031.01474083  .00002803  00000-0  19402-3 0  9990,2 53024  53.2179 294.8416 0001455  93.3487 266.7672 15.08857305 87414,6917.827,95.436,540.699,538.686,0.0
53024.0,STARLINK-4289,PAYLOAD,2024-01-31 17:50:29,15.08838015,0.0001475,53.2182,291.5673,92.2087,267.9074,2.7248e-05,1.46e-06,0.0,0 STARLINK-4289,1 53024U 22076AQ  24031.74339575  .00000146  00000-0  27248-4 0  9992,2 53024  53.2182 291.5673 0001475  92.2087 267.9074 15.08838015 87521,6917.886,95.438,540.772,538.731,0.0
53024.0,STARLINK-4289,PAYLOAD,2024-02-02 22:18:13,15.08838607,0.0001692,53.2186,281.7544,108.0661,252.0516,1.3952e-05,-6.6e-07,0.0,0 STARLINK-4289,1 53024U 22076AQ  24033.92931833 -.00000066  00000-0  13952-4 0  9998,2 53024  53.2186 281.7544 0001692 108.0661 252.0516 15.08838607 87385,6917.885,95.438,540.92,538.579,0.0
53024.0,STARLINK-4289,PAYLOAD,2024-02-03 01:28:59,15.08836533,0.0001545,53.2166,281.1598,87.4079,272.709,0.00012184,1.651e-05,0.0,0 STARLINK-4289,1 53024U 22076AQ  24034.06180097  .00001651  00000-0  12184-3 0  9997,2 53024  53.2166 281.1598 0001545  87.4079 272.7090 15.08836533 87872,6917.891,95.438,540.825,538.687,0.0
53024.0,STARLINK-4289,PAYLOAD,2024-02-03 22:09:00,15.08838407,0.0001621,53.2173,277.2907,85.1405,274.9772,4.7329e-05,4.65e-06,0.0,0 STARLINK-4289,1 53024U 22076AQ  24034.92292573  .00000465  00000-0  47329-4 0  9997,2 53024  53.2173 277.2907 0001621  85.1405 274.9772 15.08838407 87539,6917.885,95.438,540.872,538.629,0.0
53024.0,STARLINK-4289,PAYLOAD,2024-02-04 01:19:46,15.08840476,0.0001702,53.2179,276.6933,77.1617,282.9565,6.1343e-05,6.88e-06,0.0,0 STARLINK-4289,1 53024U 22076AQ  24035.05540436  .00000688  00000-0  61343-4 0  9995,2 53024  53.2179 276.6933 0001702  77.1617 282.9565 15.08840476 87553,6917.879,95.438,540.921,538.567,0.0
53024.0,STARLINK-4289,PAYLOAD,2024-02-04 20:24:24,15.08842999,0.0001665,53.2176,273.1251,79.7366,280.3814,7.0448e-05,8.33e-06,0.0,0 STARLINK-4289,1 53024U 22076AQ  24035.85028261  .00000833  00000-0  70448-4 0  9998,2 53024  53.2176 273.1251 0001665  79.7366 280.3814 15.08842999 88149,6917.871,95.437,540.888,538.584,0.0
53024.0,STARLINK-4289,PAYLOAD,2024-02-04 21:59:47,15.08842813,0.0001646,53.2178,272.8278,80.6697,279.4481,6.5327e-05,7.52e-06,0.0,0 STARLINK-4289,1 53024U 22076AQ  24035.91652240  .00000752  00000-0  65327-4 0  9995,2 53024  53.2178 272.8278 0001646  80.6697 279.4481 15.08842813 87685,6917.872,95.437,540.875,538.598,0.0
53024.0,STARLINK-4289,PAYLOAD,2024-02-05 09:07:29,15.0884494,0.000143,53.2166,270.7495,96.9939,263.1216,5.9485e-05,6.59e-06,0.0,0 STARLINK-4289,1 53024U 22076AQ  24036.38019952  .00000659  00000-0  59485-4 0  9998,2 53024  53.2166 270.7495 0001430  96.9939 263.1216 15.08844940 87757,6917.865,95.437,540.72,538.741,0.0
53024.0,STARLINK-4289,PAYLOAD,2024-02-05 21:50:34,15.08846057,0.0001553,53.2174,268.3695,109.829,250.287,3.8844e-05,3.3e-06,0.0,0 STARLINK-4289,1 53024U 22076AQ  24036.91011886  .00000330  00000-0  38844-4 0  9997,2 53024  53.2174 268.3695 0001553 109.8290 250.2870 15.08846057 87834,6917.862,95.437,540.801,538.653,0.0
53024.0,STARLINK-4289,PAYLOAD,2024-02-06 20:05:58,15.08843502,0.0001523,53.2169,264.2061,110.8398,249.2757,4.0291e-05,3.53e-06,0.0,0 STARLINK-4289,1 53024U 22076AQ  24037.83747859  .00000353  00000-0  40291-4 0  9999,2 53024  53.2169 264.2061 0001523 110.8398 249.2757 15.08843502 87977,6917.87,95.437,540.788,538.681,0.0
53024.0,STARLINK-4289,PAYLOAD,2024-02-07 19:56:45,15.08835509,0.0001462,53.2166,259.747,109.842,250.273,-1.1677e-06,-3.07e-06,0.0,0 STARLINK-4289,1 53024U 22076AQ  24038.83108618 -.00000307  00000-0 -11677-5 0  9992,2 53024  53.2166 259.7470 0001462 109.8420 250.2730 15.08835509 88593,6917.894,95.438,540.771,538.748,0.0
53024.0,STARLINK-4289,PAYLOAD,2024-02-07 21:32:09,15.08835965,0.0001252,53.2162,259.4545,88.9791,271.1345,-2.3233e-05,-6.58e-06,0.0,0 STARLINK-4289,1 53024U 22076AQ  24038.89732783 -.00000658  00000-0 -23233-4 0  9993,2 53024  53.2162 259.4545 0001252  88.9791 271.1345 15.08835965 88134,6917.893,95.438,540.624,538.892,0.0
53024.0,STARLINK-4289,PAYLOAD,2024-02-08 07:04:27,15.08836553,0.0001173,53.2152,257.6682,81.4588,278.6537,-4.493e-06,-3.59e-06,0.0,0 STARLINK-4289,1 53024U 22076AQ  24039.29476787 -.00000359  00000-0 -44930-5 0  9993,2 53024  53.2152 257.6682 0001173  81.4588 278.6537 15.08836553 88194,6917.891,95.438,540.567,538.944,0.0
53024.0,STARLINK-4289,PAYLOAD,2024-02-08 21:22:55,15.08838758,0.000118,53.2158,254.9913,78.4726,281.6399,8.2002e-05,1.017e-05,0.0,0 STARLINK-4289,1 53024U 22076AQ  24039.89092512  .00001017  00000-0  82002-4 0  9990,2 53024  53.2158 254.9913 0001180  78.4726 281.6399 15.08838758 88284,6917.884,95.438,540.565,538.933,0.0
53024.0,STARLINK-4289,PAYLOAD,2024-02-09 19:38:20,15.08829835,0.0001228,53.2157,250.8275,72.0868,288.0258,2.4218e-05,9.8e-07,0.0,0 STARLINK-4289,1 53024U 22076AQ  24040.81829754  .00000098  00000-0  24218-4 0  9993,2 53024  53.2157 250.8275 0001228  72.0868 288.0258 15.08829835 88897,6917.911,95.438,540.626,538.927,0.0
